STARLINK-3366           
1 51104U 22005A   22275.81496002  .00004290  00000+0  28749-3 0  9995
2 51104  53.2160 157.9801 0001699  52.7692 307.3455 15.08838478 39581
STARLINK-3350           
1 51105U 22005B   22276.12039768  .00005836  00000+0  38442-3 0  9991
2 51105  53.2159 156.6270 0001661  67.3240 292.7927 15.08845284 40740
STARLINK-3176           
1 51106U 22005C   22275.83335405  .00000041  00000+0  20712-4 0  9991
2 51106  53.2153 157.8888 0001973  39.1770 320.9365 15.08836059 39584
STARLINK-3368           
1 51107U 22005D   22275.96587162  .00000955  00000+0  78101-4 0  9994
2 51107  53.2175 167.3153 0001694  52.5090 307.6056 15.08839790 40580
STARLINK-3362           
1 51108U 22005E   22276.11671475  .00011418  00000+0  73421-3 0  9999
2 51108  53.2143 156.6402 0001920  44.2570 315.8576 15.08845423 40732
STARLINK-3358           
1 51109U 22005F   22275.80856120 -.00002024  00000+0 -10912-3 0  9998
2 51109  53.2163 158.0016 0002003  48.2905 311.8259 15.08837083 39354
STARLINK-3344           
1 51110U 22005G   22276.10935495  .00011448  00000+0  73606-3 0  9994
2 51110  53.2151 156.6726 0001731  54.2730 305.8423 15.08847115 40743
STARLINK-3173           
1 51111U 22005H   22275.81863855 -.00001469  00000+0 -74238-4 0  9999
2 51111  53.2169 157.9702 0001595  66.6868 293.4292 15.08832472 39584
STARLINK-3374           
1 51112U 22005J   22276.10567613  .00004755  00000+0  31663-3 0  9999
2 51112  53.2180 156.6911 0002153  53.4626 306.6564 15.08843174 40743
STARLINK-3372           
1 51113U 22005K   22275.82968367 -.00001760  00000+0 -92484-4 0  9993
2 51113  53.2167 157.9080 0001728  56.5834 303.5324 15.08837192 39585
STARLINK-3375           
1 51114U 22005L   22276.04680324 -.00001117  00000+0 -52080-4 0  9997
2 51114  53.2150 156.9551 0001858  49.4131 310.7022 15.08836890 40733
STARLINK-3397           
1 51115U 22005M   22275.82231903 -.00001347  00000+0 -66552-4 0  9992
2 51115  53.2156 157.9406 0001559  55.3305 304.7834 15.08835806 39588
STARLINK-3243           
1 51116U 22005N   22276.10199840 -.00000808  00000+0 -32649-4 0  9999
2 51116  53.2174 156.6903 0001712  45.8282 314.2851 15.08852148 40738
STARLINK-3391           
1 51117U 22005P   22275.87384069 -.00001402  00000+0 -70000-4 0  9996
2 51117  53.2165 157.7178 0001833  49.2518 310.8633 15.08841315 39595
STARLINK-3394           
1 51118U 22005Q   22275.95847933  .00001979  00000+0  14241-3 0  9991
2 51118  53.2165 157.3328 0001936  53.4602 306.6568 15.08839054 40717
STARLINK-3390           
1 51119U 22005R   22276.06888890 -.00000312  00000+0 -14790-5 0  9995
2 51119  53.2171 156.8518 0001773  52.3863 307.7290 15.08826081 40738
STARLINK-3398           
1 51120U 22005S   22276.12775579  .00000399  00000+0  43143-4 0  9999
2 51120  53.2169 156.5919 0001910  48.9450 311.1707 15.08843329 40742
STARLINK-3399           
1 51121U 22005T   22275.94375438  .00000309  00000+0  37494-4 0  9992
2 51121  53.2168 157.3961 0001689  50.5409 309.5732 15.08854670 40711
STARLINK-3373           
1 51122U 22005U   22276.06519764 -.00001656  00000+0 -85983-4 0  9993
2 51122  53.2182 156.8733 0001542 132.4949 227.6174 15.08845149 40739
STARLINK-3392           
1 51123U 22005V   22276.05783632  .00000294  00000+0  36557-4 0  9998
2 51123  53.2183 156.9064 0001663  64.5220 295.5944 15.08835707 40705
STARLINK-3389           
1 51124U 22005W   22275.43867443 -.00001999  00000+0 -10752-3 0  9996
2 51124  53.2164 169.6800 0001695  56.8626 303.2528 15.08834267 40506
STARLINK-3387           
1 51125U 22005X   22275.42764152 -.00002883  00000+0 -16307-3 0  9994
2 51125  53.2170 169.7336 0001941  46.5646 313.5508 15.08839317 39377
STARLINK-3386           
1 51126U 22005Y   22276.09739243 -.00000150  00000+0  86557-5 0  9992
2 51126  53.2161 166.7244 0001796  50.8650 309.2502 15.08851523 40601
STARLINK-3370           
1 51127U 22005Z   22276.09372457  .00020450  00000+0  12985-2 0  9998
2 51127  53.2157 166.7429 0001670  50.4014 309.7125 15.08861920 40601
STARLINK-3400           
1 51128U 22005AA  22276.07531065  .00002916  00000+0  20119-3 0  9995
2 51128  53.2155 166.8309 0001704  57.7989 302.3169 15.08844048 40594
STARLINK-3396           
1 51129U 22005AB  22276.10203337 -.00000781  00000+0 -30991-4 0  9998
2 51129  53.2161 166.7032 0001709  53.8401 306.2749 15.08849080 40616
STARLINK-3395           
1 51130U 22005AC  22275.42395818 -.00004282  00000+0 -25112-3 0  9998
2 51130  53.2164 169.7482 0001582  47.8886 312.2240 15.08836291 39376
STARLINK-3388           
1 51131U 22005AD  22276.14524013  .00009763  00000+0  63048-3 0  9997
2 51131  53.2147 166.5152 0002157  47.0327 313.0846 15.08848831 40600
STARLINK-3393           
1 51132U 22005AE  22275.81771038 -.00000134  00000+0  96593-5 0  9999
2 51132  53.2165 167.9868 0001791  52.3537 307.7617 15.08837503 39434
STARLINK-3356           
1 51133U 22005AF  22276.07164277 -.00001333  00000+0 -65641-4 0  9992
2 51133  53.2184 166.8431 0002002  47.4635 312.6526 15.08844165 40595
STARLINK-3183           
1 51134U 22005AG  22276.04039883 -.00000342  00000+0 -33976-5 0  9990
2 51134  53.2175 156.9613 0001890  43.3159 316.7982 15.08837042 40731
STARLINK-3363           
1 51135U 22005AH  22276.13418446  .00001493  00000+0  11187-3 0  9991
2 51135  53.2168 166.5645 0001808  48.2489 311.8658 15.08848064 40603
STARLINK-3253           
1 51136U 22005AJ  22276.13515642 -.00000340  00000+0 -32675-5 0  9997
2 51136  53.2163 166.5541 0001862  47.7493 312.3657 15.08849225 40619
STARLINK-3180           
1 51137U 22005AK  22275.85819397 -.00000512  00000+0 -14061-4 0  9999
2 51137  53.2174 167.8009 0001939  45.2926 314.8224 15.08838935 39457
STARLINK-3177           
1 51138U 22005AL  22276.13051020  .00008868  00000+0  57433-3 0  9992
2 51138  53.2170 166.5582 0001835  45.8359 314.2784 15.08855138 40605
STARLINK-3172           
1 51139U 22005AM  22275.85083603 -.00000936  00000+0 -40699-4 0  9990
2 51139  53.2184 167.8284 0001984  47.7434 312.3727 15.08836160 39455
STARLINK-3175           
1 51140U 22005AN  22275.86187889 -.00001743  00000+0 -91445-4 0  9996
2 51140  53.2157 167.7732 0001587  52.1670 307.9466 15.08829645 39455
STARLINK-3179           
1 51141U 22005AP  22275.97596391 -.00001167  00000+0 -55214-4 0  9995
2 51141  53.2157 167.2700 0001990  49.9183 310.1983 15.08833649 40582
STARLINK-3369           
1 51142U 22005AQ  22275.91667824 -.00006241  00000+0 -37443-3 0  9991
2 51142  53.2160 157.5379 0001877  48.7168  18.9927 15.08834392  1309
STARLINK-3184           
1 51143U 22005AR  22276.02655685 -.00001420  00000+0 -71154-4 0  9999
2 51143  53.2163 177.0458 0001567  67.1541 292.9616 15.08844283 40441
STARLINK-3185           
1 51144U 22005AS  22275.97964208  .00005448  00000+0  36006-3 0  9995
2 51144  53.2179 167.2558 0001983  54.1966 305.9210 15.08848855 40589
STARLINK-3365           
1 51145U 22005AT  22276.15535288  .00005694  00000+0  37545-3 0  9991
2 51145  53.2158 176.4660 0001621  94.6370 265.4807 15.08850912 40466
STARLINK-3354           
1 51146U 22005AU  22276.05324353  .00003000  00000+0  20650-3 0  9998
2 51146  53.2175 166.9209 0001713  54.5404 305.5748 15.08844690 40594
STARLINK-3352           
1 51147U 22005AV  22275.69903991 -.00001446  00000+0 -72807-4 0  9995
2 51147  53.2174 178.5177 0001607  59.5541 300.5610 15.08831437 39288
STARLINK-3359           
1 51148U 22005AW  22275.82047875  .00000121  00000+0  25724-4 0  9994
2 51148  53.2169 177.9596 0001755  53.9887 306.1268 15.08832734 39301
STARLINK-3360           
1 51149U 22005AX  22275.75055545  .00001215  00000+0  94464-4 0  9992
2 51149  53.2150 178.2649 0001663  65.3990 294.7175 15.08835042 39297
STARLINK-3357           
1 51150U 22005AY  22275.44235836 -.00001485  00000+0 -75269-4 0  9996
2 51150  53.2179 169.6631 0001318  67.1876 292.9255 15.08832831 39398
STARLINK-3361           
1 51151U 22005AZ  22275.87568286 -.00000244  00000+0  27640-5 0  9994
2 51151  53.2159 177.6991 0001863  55.6545 304.4624 15.08848514 39311
STARLINK-3364           
1 51152U 22005BA  22275.15070767  .00000181  00000+0  29491-4 0  9992
2 51152  53.2170 180.9613 0001656  47.4526 312.6606 15.08840969 39206
